PERSEUS-M1              
1 40039U 14033AF  26183.55731495  .00001426  00000+0  13352-3 0  9995
2 40039  97.9648 127.9422 0010124 243.6906 116.3274 14.95683129652933
POLYITAN-1              
1 40042U 14033AJ  26182.79921080  .00023270  00000+0  71283-3 0  9993
2 40042  98.0933 210.4473 0008748 101.4445 258.7779 15.33780662655834
TIGRISAT                
1 40043U 14033AK  26183.40944943  .00002010  00000+0  23566-3 0  9996
2 40043  97.7850 333.0739 0049718  26.2474 334.1244 14.85217170647881
AEROCUBE 6A             
1 40045U 14033AM  26183.45190162  .00006088  00000+0  50995-3 0  9994
2 40045  97.7230 350.2400 0037755 324.7615  35.1111 14.98240003648902
AEROCUBE 6B             
1 40046U 14033AN  26183.43936123  .00005771  00000+0  46566-3 0  9995
2 40046  97.7222 350.0516 0037714 315.4563  44.3630 14.99701854649045
CANX-4                  
1 40055U 14034C   26183.41818082  .00001057  00000+0  14278-3 0  9995
2 40055  98.3101  59.2891 0012027 327.7208  32.3267 14.81292570646786
CANX-5                  
1 40056U 14034D   26183.61908220  .00001082  00000+0  14587-3 0  9993
2 40056  98.3103  59.5418 0012020 327.2625  32.7840 14.81310317637622
UKUBE-1                 
1 40074U 14037F   26183.24039049  .00009513  00000+0  53119-3 0  9990
2 40074  98.4235 188.0962 0003152 109.2963 250.8606 15.13782027650838
BRITE-PL2 (HEWELIUSZ)   
1 40119U 14049B   26183.57036979  .00001939  00000+0  18404-3 0  9990
2 40119  97.9112 295.6901 0015078  61.6638 298.6101 14.94649737643744
AEROCUBE 5C             
1 40965U 15058B   26183.45857871  .00002785  00000+0  24998-3 0  9994
2 40965  64.7652 215.0796 0131522  57.3193 304.0525 14.91517262367933
AEROCUBE 7              
1 40966U 15058C   26183.41117672  .00004599  00000+0  36799-3 0  9996
2 40966  64.7601 197.1275 0121226  55.6861 305.5656 14.95818937368235
FOX-1A (AO-85)          
1 40967U 15058D   26183.57819337  .00002553  00000+0  23340-3 0  9997
2 40967  64.7737 231.1515 0131455  50.6094 310.6573 14.91033762115865
SINOD-D 1               
1 40968U 15058E   26183.52100217  .00004032  00000+0  32378-3 0  9998
2 40968  64.7729 210.8898 0120080  47.0354 314.0753 14.95996618118959
SNAP-3 ALICE            
1 40970U 15058G   26183.60399245  .00135133  00000+0  13768-2 0  9999
2 40970  64.7494  50.4913 0023704 359.6109   0.5016 15.64101419119293
LMRST-SAT               
1 40971U 15058H   26183.53744159  .00002453  00000+0  22632-3 0  9999
2 40971  64.7742 227.6452 0133008  52.6570 308.6572 14.90650106115843
SNAP-3 EDDIE            
1 40972U 15058J   26183.00692072  .00153398  00000+0  14946-2 0  9991
2 40972  64.7410  43.1813 0024440   3.4118 356.7192 15.65141975121345
PROPCUBE 3              
1 40973U 15058K   26183.46834677  .00003788  00000+0  31526-3 0  9992
2 40973  64.7664 204.7888 0124916  53.9075 307.3528 14.94337998117089
BISONSAT                
1 40974U 15058L   26183.53165377  .00016820  00000+0  79571-3 0  9998
2 40974  64.7583 124.0187 0080824  41.0436 319.6731 15.16610645117949
SNAP-3 JIMI             
1 40975U 15058M   26183.36622355  .00008037  00000+0  54509-3 0  9999
2 40975  64.7634 171.7411 0107005  49.3040 311.7313 15.02457254116509
PROPCUBE 1 (FLORA)      
1 40976U 15058N   26183.57360777  .00002293  00000+0  22099-3 0  9997
2 40976  64.7739 247.5480 0131625  54.9311 306.4062 14.89283455118555
SINOD-D 3               
1 40977U 15058P   26183.43552987  .00003574  00000+0  30359-3 0  9990
2 40977  64.7707 228.2010 0120157  52.0872 309.1031 14.94100462117035
HORYU-4                 
1 41340U 16012D   26182.79199294  .04204222 -38650-5  11151-2 0  9996
2 41340  30.9791 330.1929 0008659 346.1826  13.8606 16.27112331573161
RAVAN                   
1 41849U 16067B   26183.22664337  .00060112  00000+0  85446-3 0  9998
2 41849  97.9863  74.5513 0001901 324.7714  35.3413 15.56197388530037
CELTEE 1                
1 41850U 16067C   26183.61402914  .00005728  00000+0  27081-3 0  9997
2 41850  98.0649  51.2329 0001803 125.0064 235.1339 15.19833278528220
OPTICUBE 04             
1 41851U 16067D   26183.12476192  .00002704  00000+0  17157-3 0  9997
2 41851  98.0684  36.1871 0016951  69.3371 290.9672 15.09725753527422
AEROCUBE 8D             
1 41852U 16067E   26183.58022601  .00008564  00000+0  35026-3 0  9995
2 41852  98.0657  54.9225 0005006  87.2317 272.9492 15.24614243528410
AEROCUBE 8C             
1 41853U 16067F   26182.35587173  .00010093  00000+0  40921-3 0  9990
2 41853  98.0534  50.8147 0005644  28.9587 331.1961 15.24848091528220
CORVUS BC2              
1 42846U 17042X   26183.40685672  .00004259  00000+0  29262-3 0  9999
2 42846  97.4073 344.1660 0014118  63.2233 297.0438 15.06389012489351
CORVUS BC1              
1 42847U 17042Y   26183.39978893  .00004665  00000+0  31879-3 0  9996
2 42847  97.4111 344.9831 0012579  41.7865 318.4321 15.06556614489380
MAKERSAT 0              
1 43016U 17073D   26182.74249883  .00021095  00000+0  56439-3 0  9992
2 43016  97.4602  65.3778 0104893 220.3477 138.9950 15.32570583468697
